{
  "type": "FeatureCollection",
  "features": [
    {
      "type": "Feature",
      "properties": {
        "ward_id": "WARD-01",
        "name": "Rampur Rural",
        "zone": "North Zone"
      },
      "geometry": {
        "type": "Polygon",
        "coordinates": [
          [
            [
              77.1,
              28.7
            ],
            [
              77.18,
              28.7
            ],
            [
              77.18,
              28.78
            ],
            [
              77.1,
              28.78
            ],
            [
              77.1,
              28.7
            ]
          ]
        ]
      }
    },
    {
      "type": "Feature",
      "properties": {
        "ward_id": "WARD-02",
        "name": "Anand Vihar Urban",
        "zone": "East Zone"
      },
      "geometry": {
        "type": "Polygon",
        "coordinates": [
          [
            [
              77.28,
              28.62
            ],
            [
              77.35,
              28.62
            ],
            [
              77.35,
              28.68
            ],
            [
              77.28,
              28.68
            ],
            [
              77.28,
              28.62
            ]
          ]
        ]
      }
    },
    {
      "type": "Feature",
      "properties": {
        "ward_id": "WARD-03",
        "name": "Sitapur Industrial",
        "zone": "South Zone"
      },
      "geometry": {
        "type": "Polygon",
        "coordinates": [
          [
            [
              77.2,
              28.5
            ],
            [
              77.27,
              28.5
            ],
            [
              77.27,
              28.57
            ],
            [
              77.2,
              28.57
            ],
            [
              77.2,
              28.5
            ]
          ]
        ]
      }
    },
    {
      "type": "Feature",
      "properties": {
        "ward_id": "WARD-04",
        "name": "Subhash Nagar Peri-Urban",
        "zone": "West Zone"
      },
      "geometry": {
        "type": "Polygon",
        "coordinates": [
          [
            [
              77.08,
              28.6
            ],
            [
              77.16,
              28.6
            ],
            [
              77.16,
              28.67
            ],
            [
              77.08,
              28.67
            ],
            [
              77.08,
              28.6
            ]
          ]
        ]
      }
    },
    {
      "type": "Feature",
      "properties": {
        "ward_id": "WARD-05",
        "name": "Kalyanpur Tribal Belt",
        "zone": "East Zone"
      },
      "geometry": {
        "type": "Polygon",
        "coordinates": [
          [
            [
              77.35,
              28.7
            ],
            [
              77.44,
              28.7
            ],
            [
              77.44,
              28.79
            ],
            [
              77.35,
              28.79
            ],
            [
              77.35,
              28.7
            ]
          ]
        ]
      }
    },
    {
      "type": "Feature",
      "properties": {
        "ward_id": "WARD-06",
        "name": "Central Metro Core",
        "zone": "Central Zone"
      },
      "geometry": {
        "type": "Polygon",
        "coordinates": [
          [
            [
              77.18,
              28.6
            ],
            [
              77.25,
              28.6
            ],
            [
              77.25,
              28.67
            ],
            [
              77.18,
              28.67
            ],
            [
              77.18,
              28.6
            ]
          ]
        ]
      }
    }
  ]
}